NORAD_CAT_ID,OBJECT_NAME,OBJECT_TYPE,EPOCH,MEAN_MOTION,ECCENTRICITY,INCLINATION,RA_OF_ASC_NODE,ARG_OF_PERICENTER,MEAN_ANOMALY,BSTAR,MEAN_MOTION_DOT,MEAN_MOTION_DDOT,TLE_LINE0,TLE_LINE1,TLE_LINE2,SEMIMAJOR_AXIS,PERIOD,APOGEE,PERIGEE,DECAYED
53744.0,STARLINK-4670,PAYLOAD,2024-06-03 19:14:35,15.08848809,5.33e-05,53.2181,274.27,88.9885,271.1168,0.00011643,1.566e-05,0.0,0 STARLINK-4670,1 53744U 22107AW  24155.80179440  .00001566  00000-0  11643-3 0  9991,2 53744  53.2181 274.2700 0000533  88.9885 271.1168 15.08848809 96613,6917.853,95.437,540.087,539.35,0.0
53744.0,STARLINK-4670,PAYLOAD,2024-06-03 20:49:57,15.08850979,4.7e-05,53.2187,273.9718,101.1508,258.9537,0.0001306,1.792e-05,0.0,0 STARLINK-4670,1 53744U 22107AW  24155.86803167  .00001792  00000-0  13060-3 0  9993,2 53744  53.2187 273.9718 0000470 101.1508 258.9537 15.08850979 97406,6917.847,95.437,540.037,539.387,0.0
53744.0,STARLINK-4670,PAYLOAD,2024-06-04 11:08:27,15.08831917,0.0001024,53.2132,271.2943,113.1834,246.9266,-1.5997e-05,-5.42e-06,0.0,0 STARLINK-4670,1 53744U 22107AW  24156.46420945 -.00000542  00000-0 -15997-4 0  9995,2 53744  53.2132 271.2943 0001024 113.1834 246.9266 15.08831917 96718,6917.905,95.438,540.478,539.062,0.0
53744.0,STARLINK-4670,PAYLOAD,2024-06-04 14:19:13,15.08844635,0.0001434,53.2114,270.7002,84.4061,275.7095,-4.886e-05,-1.066e-05,0.0,0 STARLINK-4670,1 53744U 22107AW  24156.59668421 -.00001066  00000-0 -48860-4 0  9999,2 53744  53.2114 270.7002 0001434  84.4061 275.7095 15.08844635 97515,6917.866,95.437,540.723,538.739,0.0
53744.0,STARLINK-4670,PAYLOAD,2024-06-04 17:29:59,15.08844883,0.0001502,53.2157,270.1065,93.4937,266.6227,-5.1982e-05,-1.115e-05,0.0,0 STARLINK-4670,1 53744U 22107AW  24156.72916441 -.00001115  00000-0 -51982-4 0  9996,2 53744  53.2157 270.1065 0001502  93.4937 266.6227 15.08844883 96759,6917.865,95.437,540.77,538.691,0.0
53744.0,STARLINK-4670,PAYLOAD,2024-06-05 10:59:15,15.08826394,9.96e-05,53.2152,266.8349,75.4455,284.6648,4.8153e-05,4.78e-06,0.0,0 STARLINK-4670,1 53744U 22107AW  24157.45781256  .00000478  00000-0  48153-4 0  9996,2 53744  53.2152 266.8349 0000996  75.4455 284.6648 15.08826394 96868,6917.922,95.438,540.476,539.098,0.0
53744.0,STARLINK-4670,PAYLOAD,2024-06-05 14:10:01,15.08826188,9.07e-05,53.216,266.2401,73.774,286.3352,5.228e-05,5.44e-06,0.0,0 STARLINK-4670,1 53744U 22107AW  24157.59029342  .00000544  00000-0  52280-4 0  9992,2 53744  53.2160 266.2401 0000907  73.7740 286.3352 15.08826188 97661,6917.923,95.438,540.415,539.16,0.0
53744.0,STARLINK-4670,PAYLOAD,2024-06-05 23:42:19,15.08842777,5.98e-05,53.2171,264.4577,64.7341,295.3713,5.6757e-05,6.16e-06,0.0,0 STARLINK-4670,1 53744U 22107AW  24157.98772349  .00000616  00000-0  56757-4 0  9990,2 53744  53.2171 264.4577 0000598  64.7341 295.3713 15.08842777 96943,6917.872,95.437,540.151,539.323,0.0
53744.0,STARLINK-4670,PAYLOAD,2024-06-06 12:25:25,15.08823691,9.44e-05,53.2189,262.0814,77.5291,282.5806,0.00013086,1.795e-05,0.0,0 STARLINK-4670,1 53744U 22107AW  24158.51765906  .00001795  00000-0  13086-3 0  9997,2 53744  53.2189 262.0814 0000944  77.5291 282.5806 15.08823691 97026,6917.93,95.439,540.448,539.142,0.0
53744.0,STARLINK-4670,PAYLOAD,2024-06-07 13:51:35,15.08833897,8.35e-05,53.2173,257.3222,85.9059,274.2029,0.00015803,2.228e-05,0.0,0 STARLINK-4670,1 53744U 22107AW  24159.57749907  .00002228  00000-0  15803-3 0  9998,2 53744  53.2173 257.3222 0000835  85.9059 274.2029 15.08833897 97184,6917.899,95.438,540.342,539.186,0.0
53744.0,STARLINK-4670,PAYLOAD,2024-06-07 23:23:54,15.08847457,8.21e-05,53.2179,255.5377,79.1459,280.9626,0.00013206,1.815e-05,0.0,0 STARLINK-4670,1 53744U 22107AW  24159.97493160  .00001815  00000-0  13206-3 0  9995,2 53744  53.2179 255.5377 0000821  79.1459 280.9626 15.08847457 97246,6917.858,95.437,540.291,539.155,0.0
53744.0,STARLINK-4670,PAYLOAD,2024-06-08 12:06:59,15.08842144,0.0001134,53.2178,253.1603,89.3229,270.7893,7.5133e-05,9.08e-06,0.0,0 STARLINK-4670,1 53744U 22107AW  24160.50485525  .00000908  00000-0  75133-4 0  9992,2 53744  53.2178 253.1603 0001134  89.3229 270.7893 15.08842144 98104,6917.874,95.437,540.523,538.954,0.0
53744.0,STARLINK-4670,PAYLOAD,2024-06-08 15:17:45,15.08845611,0.0001188,53.2181,252.5617,90.948,269.1648,0.00010815,1.434e-05,0.0,0 STARLINK-4670,1 53744U 22107AW  24160.63733362  .00001434  00000-0  10815-3 0  9991,2 53744  53.2181 252.5617 0001188  90.9480 269.1648 15.08845611 97349,6917.863,95.437,540.55,538.906,0.0
53744.0,STARLINK-4670,PAYLOAD,2024-06-08 23:14:40,15.08860773,0.0001808,53.217,251.0772,70.2239,289.8948,0.00032598,4.907e-05,0.0,0 STARLINK-4670,1 53744U 22107AW  24160.96852458  .00004907  00000-0  32598-3 0  9995,2 53744  53.2170 251.0772 0001808  70.2239 289.8948 15.08860773 97398,6917.817,95.436,540.933,538.431,0.0
53744.0,STARLINK-4670,PAYLOAD,2024-06-09 11:57:47,15.08827136,0.0001204,53.2167,248.6985,71.8667,288.2457,-0.00014897,-2.657e-05,0.0,0 STARLINK-4670,1 53744U 22107AW  24161.49846113 -.00002657  00000-0 -14897-3 0  9999,2 53744  53.2167 248.6985 0001204  71.8667 288.2457 15.08827136 97477,6917.92,95.438,540.618,538.952,0.0
53744.0,STARLINK-4670,PAYLOAD,2024-06-10 05:27:01,15.08835175,0.0001267,53.2183,245.4243,82.7038,277.4098,2.1169e-06,-2.54e-06,0.0,0 STARLINK-4670,1 53744U 22107AW  24162.22710000 -.00000254  00000-0  21169-5 0  9998,2 53744  53.2183 245.4243 0001267  82.7038 277.4098 15.08835175 97584,6917.895,95.438,540.637,538.884,0.0
53744.0,STARLINK-4670,PAYLOAD,2024-06-10 11:48:33,15.08840898,0.0001081,53.2167,244.237,79.2754,280.8359,9.9392e-05,1.294e-05,0.0,0 STARLINK-4670,1 53744U 22107AW  24162.49205733  .00001294  00000-0  99392-4 0  9995,2 53744  53.2167 244.2370 0001081  79.2754 280.8359 15.08840898 98402,6917.878,95.437,540.49,538.995,0.0
53744.0,STARLINK-4670,PAYLOAD,2024-06-11 11:39:20,15.08840287,0.0001319,53.2182,239.778,77.1177,282.9962,0.00031045,4.656e-05,0.0,0 STARLINK-4670,1 53744U 22107AW  24163.48565943  .00004656  00000-0  31045-3 0  9992,2 53744  53.2182 239.7780 0001319  77.1177 282.9962 15.08840287 98554,6917.88,95.438,540.657,538.832,0.0
53744.0,STARLINK-4670,PAYLOAD,2024-06-12 05:08:35,15.08841996,0.0001112,53.2157,236.5068,78.4071,281.7046,0.00013563,1.872e-05,0.0,0 STARLINK-4670,1 53744U 22107AW  24164.21429727  .00001872  00000-0  13563-3 0  9995,2 53744  53.2157 236.5068 0001112  78.4071 281.7046 15.08841996 97881,6917.874,95.437,540.509,538.97,0.0
53744.0,STARLINK-4670,PAYLOAD,2024-06-12 11:30:08,15.08835936,0.0001101,53.2157,235.3161,82.4658,277.6459,1.3132e-05,-7.9e-07,0.0,0 STARLINK-4670,1 53744U 22107AW  24164.47925986 -.00000079  00000-0  13132-4 0  9993,2 53744  53.2157 235.3161 0001101  82.4658 277.6459 15.08835936 97920,6917.893,95.438,540.519,538.996,0.0
53744.0,STARLINK-4670,PAYLOAD,2024-06-13 11:20:55,15.08840551,0.0001026,53.2159,230.8561,81.624,278.4868,0.00017237,2.457e-05,0.0,0 STARLINK-4670,1 53744U 22107AW  24165.47286055  .00002457  00000-0  17237-3 0  9991,2 53744  53.2159 230.8561 0001026  81.6240 278.4868 15.08840551 98855,6917.879,95.438,540.453,539.034,0.0
53744.0,STARLINK-4670,PAYLOAD,2024-06-14 12:47:05,15.08838555,9.65e-05,53.2158,226.099,79.0281,281.0819,0.00014216,1.975e-05,0.0,0 STARLINK-4670,1 53744U 22107AW  24166.53270266  .00001975  00000-0  14216-3 0  9994,2 53744  53.2158 226.0990 0000965  79.0281 281.0819 15.08838555 99010,6917.885,95.438,540.417,539.082,0.0
53744.0,STARLINK-4670,PAYLOAD,2024-06-14 20:44:01,15.08842577,9.65e-05,53.2157,224.6122,79.5272,280.5829,0.00014296,1.988e-05,0.0,0 STARLINK-4670,1 53744U 22107AW  24166.86390049  .00001988  00000-0  14296-3 0  9994,2 53744  53.2157 224.6122 0000965  79.5272 280.5829 15.08842577 99064,6917.873,95.437,540.405,539.07,0.0
53744.0,STARLINK-4670,PAYLOAD,2024-06-15 12:37:52,15.08844496,0.0001077,53.2165,221.64,85.928,274.1835,0.00010504,1.385e-05,0.0,0 STARLINK-4670,1 53744U 22107AW  24167.52629931  .00001385  00000-0  10504-3 0  9992,2 53744  53.2165 221.6400 0001077  85.9280 274.1835 15.08844496 99163,6917.867,95.437,540.477,538.987,0.0
53744.0,STARLINK-4670,PAYLOAD,2024-06-15 20:34:47,15.08852832,0.000105,53.2164,220.1527,82.0633,278.0478,0.00021641,3.159e-05,0.0,0 STARLINK-4670,1 53744U 22107AW  24167.85749382  .00003159  00000-0  21641-3 0  9996,2 53744  53.2164 220.1527 0001050  82.0633 278.0478 15.08852832 99212,6917.841,95.437,540.433,538.98,0.0
53744.0,STARLINK-4670,PAYLOAD,2024-06-16 10:53:16,15.08836153,0.0001216,53.2171,217.4768,84.5642,275.5489,3.7203e-05,3.04e-06,0.0,0 STARLINK-4670,1 53744U 22107AW  24168.45366617  .00000304  00000-0  37203-4 0  9990,2 53744  53.2171 217.4768 0001216  84.5642 275.5489 15.08836153 99309,6917.892,95.438,540.598,538.916,0.0
53744.0,STARLINK-4670,PAYLOAD,2024-06-16 20:25:35,15.08843293,0.0001099,53.2165,215.6921,86.4894,273.6224,7.4565e-05,8.99e-06,0.0,0 STARLINK-4670,1 53744U 22107AW  24168.85110006  .00000899  00000-0  74565-4 0  9994,2 53744  53.2165 215.6921 0001099  86.4894 273.6224 15.08843293 99367,6917.87,95.437,540.496,538.975,0.0
53744.0,STARLINK-4670,PAYLOAD,2024-06-17 20:16:22,15.08842572,0.0001007,53.2158,211.2308,91.5645,268.5462,1.5541e-05,-4e-07,0.0,0 STARLINK-4670,1 53744U 22107AW  24169.84470246 -.00000040  00000-0  15541-4 0  9997,2 53744  53.2158 211.2308 0001007  91.5645 268.5462 15.08842572 99513,6917.873,95.437,540.434,539.041,0.0
53744.0,STARLINK-4670,PAYLOAD,2024-06-18 08:59:27,15.08842801,0.0001061,53.2156,208.8512,92.3226,267.7887,0.00015609,2.197e-05,0.0,0 STARLINK-4670,1 53744U 22107AW  24170.37461890  .00002197  00000-0  15609-3 0  9990,2 53744  53.2156 208.8512 0001061  92.3226 267.7887 15.08842801 99599,6917.872,95.437,540.471,539.003,0.0
53744.0,STARLINK-4670,PAYLOAD,2024-06-18 20:07:08,15.08846789,0.0001053,53.2158,206.7689,95.1428,264.9685,0.00012406,1.688e-05,0.0,0 STARLINK-4670,1 53744U 22107AW  24170.83829563  .00001688  00000-0  12406-3 0  9992,2 53744  53.2158 206.7689 0001053  95.1428 264.9685 15.08846789 98884,6917.86,95.437,540.453,538.996,0.0
